FENGYUN 3C              
1 39260U 13052A   23140.47373417  .00000125  00000+0  84165-4 0  9992
2 39260  98.4295 156.0756 0011635  29.1603 331.0220 14.16036257499611
CASSIOPE                
1 39265U 13055A   23139.86452483  .00014309  00000+0  34754-3 0  9999
2 39265  80.9600 267.7986 0573489  33.5299 330.0842 14.51020880500871
ZACUBE-1 (TSHEPISOSAT)  
1 39417U 13066B   23139.86239081  .00003607  00000+0  41969-3 0  9992
2 39417  97.6837 102.5289 0055775  22.4977 337.8665 14.84784153512992
CINEMA-3 (KHUSAT-2)     
1 39426U 13066L   23140.07647482  .00000981  00000+0  15452-3 0  9995
2 39426  97.8280  71.1642 0099682 236.6356 122.5281 14.71443665509013
TRITON-1                
1 39427U 13066M   23140.34834078  .00002309  00000+0  35357-3 0  9997
2 39427  97.8356  67.2652 0106630 266.9234  91.9767 14.70897077508452
DELFI-N3XT              
1 39428U 13066N   23139.63492065  .00003283  00000+0  47927-3 0  9992
2 39428  97.8339  65.4881 0109367 281.4205  77.4735 14.72420211507938
GOMX-1                  
1 39430U 13066Q   23140.46522462  .00002927  00000+0  51182-3 0  9995
2 39430  97.7832  33.2195 0147273  61.3608 300.2315 14.61700772505489
BRITE-PL1 (LEM)         
1 39431U 13066R   23140.06764442  .00000449  00000+0  10492-3 0  9994
2 39431  97.6795 328.4532 0198517 264.9309  92.9201 14.47916104501260
ICUBE-1                 
1 39432U 13066S   23139.91824197  .00004219  00000+0  38536-3 0  9999
2 39432  97.4829 132.0824 0028121 214.1357 145.8057 14.95259167514918
HUMSAT-D                
1 39433U 13066T   23139.92144046  .00005506  00000+0  45698-3 0  9996
2 39433  97.4501 140.0499 0027090 184.1951 175.9049 14.98877367515527
VELOX-PII               
1 39438U 13066Y   23139.87174984  .00002646  00000+0  33591-3 0  9990
2 39438  97.7405  94.2364 0068651  80.7265 280.1703 14.80845855510750
FIRST-MOVE              
1 39439U 13066Z   23139.87345677  .00007652  00000+0  78890-3 0  9993
2 39439  97.6789 106.2523 0057300  13.3417 346.9300 14.89269226512012
CUBEBUG-2 (LO-74)       
1 39440U 13066AA  23140.09867813  .00002539  00000+0  33194-3 0  9999
2 39440  97.7714  89.7757 0077142 117.9541 242.9506 14.79228311511204
NEE-02 KRYSAOR          
1 39441U 13066AB  23139.83448854  .00001605  00000+0  22170-3 0  9995
2 39441  97.7821  86.3945 0079465 135.0155 225.7530 14.77313782510826
FUNCUBE-1 (AO-73)       
1 39444U 13066AE  23139.85724340  .00004729  00000+0  52749-3 0  9992
2 39444  97.6701 105.0461 0053589   8.3968 351.8132 14.86444400511439
HINCUBE                 
1 39445U 13066AF  23139.89076688  .00004303  00000+0  48351-3 0  9994
2 39445  97.6714 104.8497 0053797  10.8496 349.3867 14.86181929511379
UWE-3                   
1 39446U 13066AG  23140.14024046  .00003324  00000+0  41062-3 0  9990
2 39446  97.7335  95.9970 0067460  71.2761 289.5758 14.81864139510867
AIST-1 (RS-41)          
1 39492U 13078C   23140.42682005  .00001910  00000+0  19684-3 0  9994
2 39492  82.4173 273.9582 0020448  70.5583 289.7842 14.89604280509923
SPROUT                  
1 39770U 14029E   23140.30882453  .00023292  00000+0  18130-2 0  9997
2 39770  97.9783 266.7481 0006537  41.0027 319.1686 15.01229013487973
UNISAT-6                
1 40012U 14033C   23140.07431528  .00002538  00000+0  36064-3 0  9997
2 40012  97.6712 315.5181 0056615 146.4495 214.0322 14.76648160479626
BUGSAT-1 (TITA)         
1 40014U 14033E   23139.93036349  .00004153  00000+0  34243-3 0  9996
2 40014  98.1383 157.6288 0028960   9.3165 350.8587 14.99312629486481
DUCHIFAT-1              
1 40021U 14033M   23139.82811531  .00006442  00000+0  55624-3 0  9995
2 40021  98.0551 102.8849 0011206  17.0856 343.0740 14.97562624484942
NANOSATC-BR1            
1 40024U 14033Q   23139.82258508  .00005939  00000+0  53949-3 0  9995
2 40024  98.0269  94.2472 0011556  27.2785 332.9040 14.95606550484179
QB50P1                  
1 40025U 14033R   23140.40271665  .00006163  00000+0  58739-3 0  9993
2 40025  97.9963  86.6740 0012296  34.8607 325.3415 14.93680335484501
DTUSAT-2                
1 40030U 14033W   23139.39507805  .00003576  00000+0  35062-3 0  9992
2 40030  97.9673  79.5726 0011945  35.1307 325.0697 14.92840062483705
QB50P2                  
1 40032U 14033Y   23140.10822628  .00004192  00000+0  41002-3 0  9994
2 40032  97.9670  80.3120 0011723  33.7563 326.4400 14.92846490484309
POLYITAN-1              
1 40042U 14033AJ  23139.81714942  .00005305  00000+0  49680-3 0  9997
2 40042  98.0081  87.8850 0014027  27.9748 332.2222 14.94427859483807
TIGRISAT                
1 40043U 14033AK  23139.44998641  .00001935  00000+0  27775-3 0  9993
2 40043  97.6637 315.9414 0058744 145.8787 214.6222 14.76393564479171
AISAT                   
1 40054U 14034B   23140.11810977  .00003760  00000+0  46856-3 0  9996
2 40054  98.3674 330.9929 0010398 320.8109  39.2349 14.83074261479300
CANX-4                  
1 40055U 14034C   23140.43899993  .00001282  00000+0  19199-3 0  9994
2 40055  98.3889 314.3377 0014007  11.2528 348.8991 14.76460495478456
CANX-5                  
1 40056U 14034D   23139.90371252  .00001072  00000+0  16183-3 0  9995
2 40056  98.3892 313.7678 0014032  13.1705 346.9867 14.76460654469159
VELOX-I                 
1 40057U 14034E   23140.44908146  .00003874  00000+0  49833-3 0  9995
2 40057  98.3723 332.2378 0009400 338.4306  21.6508 14.81726208479324
METEOR-M 2              
1 40069U 14037A   23140.45332140  .00000085  00000+0  58512-4 0  9993
2 40069  98.4240 147.7171 0006935  68.2030 291.9885 14.20777701459712
DX1                     
1 40071U 14037C   23140.45925566  .00001498  00000+0  19199-3 0  9992
2 40071  98.3637  30.2215 0007269 322.5520  37.5185 14.82905039479264
UKUBE-1                 
1 40074U 14037F   23140.28091240  .00004982  00000+0  54811-3 0  9990
2 40074  98.3479  43.3066 0002416 287.0761  73.0189 14.88082164480106
FIREBIRD 3              
1 40377U 15003B   23140.34736169  .00174535  00000+0  16041-2 0  9997
2 40377  99.0764  91.1860 0040312 305.8291  53.9221 15.66081677460280
FIREBIRD 4              
1 40378U 15003C   23140.41510910  .00172068  00000+0  15799-2 0  9998
2 40378  99.0787  91.5938 0040552 304.5145  55.2284 15.66099723460304
GRIFEX                  
1 40379U 15003D   23140.36292711  .00050348  00000+0  11473-2 0  9990
2 40379  99.0791  70.4556 0084207   8.7826 351.4864 15.39043396459102
CP10 (EXOCUBE)          
1 40380U 15003E   23140.36503142  .00032869  00000+0  93619-3 0  9996
2 40380  99.0854  60.6658 0100715  40.9029 319.9707 15.31031666458477
DEORBITSAIL             
1 40719U 15032E   23140.18803200  .00004962  00000+0  64114-3 0  9993
2 40719  97.7381  11.9632 0014768 356.2566   3.8534 14.81296611423673
XW-2C                   
1 40906U 15049H   23140.29012038  .00013581  00000+0  53285-3 0  9996
2 40906  97.4937 147.3482 0009773 256.5506 103.4643 15.25816532424148
XW-2D                   
1 40907U 15049J   23140.40872289  .00016644  00000+0  61756-3 0  9997
2 40907  97.4917 147.9267 0008892 246.8525 113.1777 15.27631339424247
LILACSAT-2              
1 40908U 15049K   23140.43487785  .00006343  00000+0  30214-3 0  9994
2 40908  97.5245 143.5769 0012166 289.0072  70.9844 15.19422448423588
XW-2E                   
1 40909U 15049L   23140.46414833  .00034542  00000+0  95609-3 0  9993
2 40909  97.4533 153.9571 0008253 203.6287 156.4579 15.36882802424888
XW-2F                   
1 40910U 15049M   23140.31990285  .00033584  00000+0  94883-3 0  9997
2 40910  97.4625 153.0413 0008906 208.5938 151.4818 15.36243174424604
XW-2B                   
1 40911U 15049N   23140.40074609  .00016008  00000+0  59800-3 0  9993
2 40911  97.4896 148.3729 0008859 248.9525 111.0767 15.27416619424127
KAITUO 1B               
1 40912U 15049P   23140.31848816  .00041645  00000+0  97651-3 0  9994
2 40912  97.4180 157.5907 0010263 168.1229 192.0262 15.41902414425310
LAPAN-A2                
1 40931U 15052B   23139.73487880  .00001122  00000+0  65817-4 0  9999
2 40931   6.0004 289.6121 0013609 252.8471 107.0166 14.77210651413021
LQSAT                   
1 40958U 15057A   23140.34451791  .00000706  00000+0  11470-3 0  9996
2 40958  97.7040 175.6834 0016741 317.7314  42.2604 14.73878490409589
ATHENOXAT 1             
1 41168U 15077C   23140.09174605  .00108559  00000+0  16723-2 0  9990
2 41168  14.9877  81.0390 0005544 327.3318  32.6665 15.52296219411932
GALASSIA                
1 41170U 15077E   23140.21381252  .00048818  00000+0  12569-2 0  9990
2 41170  14.9874  85.9071 0007253 351.6747   8.3456 15.37280613411905
VELOX-II                
1 41171U 15077F   23139.79000330  .00016723  00000+0  59178-3 0  9995
2 41171  14.9890 186.9373 0006681 148.9446 211.1272 15.26363685410850
CHUBUSAT-2              
1 41338U 16012B   23139.86738751  .00003331  00000+0  23007-3 0  9996
2 41338  31.0040  38.8353 0012563 256.9729 102.9505 15.03799101398116
CHUBUSAT-3              
1 41339U 16012C   23140.12509155  .00003558  00000+0  24700-3 0  9994
2 41339  31.0104  34.2515 0012483 266.7510  93.1698 15.03676686398145
HORYU-4                 
1 41340U 16012D   23139.92164051  .00005902  00000+0  37268-3 0  9992
2 41340  31.0053   5.0804 0012028 319.4404  40.5337 15.07535976398450
OUFTI-1                 
1 41458U 16025C   23140.07031046  .00031057  00000+0  86363-3 0  9991
2 41458  98.1850 340.9301 0103843 188.9968 170.9414 15.31454271388742
E-ST@R-II               
1 41459U 16025D   23140.34187545  .00036536  00000+0  10998-2 0  9995
2 41459  98.1880 338.8542 0110394 195.4970 164.2879 15.28375040388646
AAUSAT 4                
1 41460U 16025E   23140.38144647  .00125222  00000+0  19313-2 0  9998
2 41460  98.1632 350.5441 0067024 153.0004 207.4759 15.51123575389458
AIST-2D (RS-48)         
1 41465U 16026B   23140.39212616  .00029041  00000+0  40941-3 0  9991
2 41465  97.0010  12.2088 0006135 355.6812   4.4390 15.56550313395646
